              M50 Cartesian                         M50 Keplerian  
    -----------------------------------       --------------------------------
     X    =       -4279887.68                 A    =         6792516.17  meter
     Y    =         429953.58  meter          E    =           .0015031
     Z    =       -5270174.00                 I    =           51.24518
     XDOT =      -1588.320339                 Wp   =           95.02001
     YDOT =      -7451.027635  meter/sec      RA   =          253.84329  deg
     ZDOT =        682.397025                 TA   =          181.54682
                                              MA   =          181.55147
                                              Ha   =            229.257  n.mi
                                              Hp   =            222.426
 
              M50 Cartesian                         J2K Cartesian  
    -----------------------------------       --------------------------------
     X    =      -14041626.24                 X    =        -4258778.14
     Y    =        1410608.87  feet           Y    =          382210.36  meter
     Z    =      -17290597.12                 Z    =        -5290912.65
     XDOT =      -5211.024735                 XDOT =       -1508.197332
     YDOT =     -24445.628725  feet/sec       YDOT =       -7468.341314  meter/sec
     ZDOT =       2238.835383                 ZDOT =         674.876917
 
              TDR Cartesian                         TDR Cartesian  
    -----------------------------------       --------------------------------
     X    =       -9007306.36                 X    =        -2745426.98
     Y    =      -10710189.82  feet           Y    =        -3264465.86  meter
     Z    =      -17386261.81                 Z    =        -5299332.60
     XDOT =      16473.966129                 XDOT =        5021.264876
     YDOT =     -17430.831102  feet/sec       YDOT =       -5312.917320  meter/sec
     ZDOT =       2204.281176                 ZDOT =         671.864902
  
  
    The mean element set is posted at the UTC for which position is
    just north of the next ascending node relative to the above
    vector time
 
 
    TWO LINE MEAN ELEMENT SET
  
    ISS
    1 25544U 98067A   20260.87315675  .00016717  00000-0  10270-3 0  9155
    2 25544  51.6416 254.7648 0000443  84.4819 275.6381 15.48988253  6221
  
  
    Satellite: ISS
    Catalog Number: 25544
    Epoch time:      20260.87315675   =   yrday.fracday
    Element set:     915
    Inclination:       51.6416  deg
    RA of node:       254.7648  deg
    Eccentricity:     .0000443     
    Arg of perigee:    84.4819  deg
    Mean anomaly:     275.6381  deg
    Mean motion:   15.48988253  rev/day
    Decay rate:    1.67170E-04  rev/day^2
    Epoch rev:             622
    Checksum:              330
 
